GSAT0101 (PRN E11)      
1 37846U 11060A   24175.00254719 -.00000066  00000+0  00000+0 0  9994
2 37846  57.1294   1.3754 0003445  52.1745 307.8845  1.70475850 78779
GSAT0102 (PRN E12)      
1 37847U 11060B   24175.80697637 -.00000067  00000+0  00000+0 0  9994
2 37847  57.1302   1.3538 0002995  15.7244 163.7026  1.70475296 78794
GSAT0103 (PRN E19)      
1 38857U 12055A   24173.86850232  .00000022  00000+0  00000+0 0  9997
2 38857  55.4091 121.4772 0005192 281.7247  78.1658  1.70473572 72784
GSAT0201 (PRN E18)      
1 40128U 14050A   24175.55533879 -.00000060  00000+0  00000+0 0  9994
2 40128  49.6538 302.8086 1611759 151.4995 218.3850  1.85519368 64893
GSAT0202 (PRN E14)      
1 40129U 14050B   24175.27462009 -.00000059  00000+0  00000+0 0  9998
2 40129  49.6710 301.8967 1610545 152.2910 217.3432  1.85519914 67054
GSAT0203 (PRN E26)      
1 40544U 15017A   24174.78179442 -.00000066  00000+0  00000+0 0  9992
2 40544  56.9245   1.3147 0001447 253.4416 106.5706  1.70475869 56853
GSAT0204 (PRN E22)      
1 40545U 15017B   24174.44941985 -.00000066  00000+0  00000+0 0  9995
2 40545  56.9307   1.3392 0001498 215.5293 144.4899  1.70475605 19898
GSAT0205 (PRN E24)      
1 40889U 15045A   24171.28470799  .00000036  00000+0  00000+0 0  9992
2 40889  55.2159 241.7129 0002490   3.1514 356.9364  1.70473763 54602
GSAT0206 (PRN E30)      
1 40890U 15045B   24175.02488724  .00000051  00000+0  00000+0 0  9994
2 40890  55.2131 241.6048 0001191 353.3150   6.7853  1.70473879 54696
GSAT0209 (PRN E09)      
1 41174U 15079A   24172.26156224  .00000026  00000+0  00000+0 0  9999
2 41174  55.4270 121.2306 0005109 317.0165  42.8930  1.70474003 52969
GSAT0208 (PRN E08)      
1 41175U 15079B   24176.00083823  .00000022  00000+0  00000+0 0  9996
2 41175  55.4273 121.1258 0004522 317.1162  42.8050  1.70473880 53027
GSAT0211 (PRN E02)      
1 41549U 16030A   24174.36400062  .00000052  00000+0  00000+0 0  9997
2 41549  55.3618 241.6348 0003035 304.1762  55.8964  1.70473780 50318
GSAT0210 (PRN E01)      
1 41550U 16030B   24176.41503105  .00000047  00000+0  00000+0 0  9993
2 41550  55.3603 241.5793 0002795 263.5194  96.5478  1.70473991 50323
GSAT0207 (PRN E07)      
1 41859U 16069A   24175.48812228  .00000021  00000+0  00000+0 0  9994
2 41859  55.0929 121.1419 0005210 305.5761  54.3292  1.70473849 47068
GSAT0212 (PRN E03)      
1 41860U 16069B   24174.16923395  .00000021  00000+0  00000+0 0  9998
2 41860  55.0904 121.1749 0003944 329.5111  30.4153  1.70474082 47292
GSAT0213 (PRN E04)      
1 41861U 16069C   24174.53768555  .00000021  00000+0  00000+0 0  9995
2 41861  55.0926 121.1712 0005125 288.4838  71.4108  1.70472708 47297
GSAT0214 (PRN E05)      
1 41862U 16069D   24175.26957012  .00000021  00000+0  00000+0 0  9995
2 41862  55.0916 121.1446 0004197 292.8196  67.0890  1.70474067 47306
GSAT0215 (PRN E21)      
1 43055U 17079A   24173.99959755  .00000051  00000+0  00000+0 0  9990
2 43055  55.3389 241.4666 0002708 254.6892 105.3815  1.70474650 40623
GSAT0216 (PRN E25)      
1 43056U 17079B   24174.87787485  .00000052  00000+0  00000+0 0  9999
2 43056  55.3387 241.4424 0004690 265.5092  94.5393  1.70474687 40629
GSAT0217 (PRN E27)      
1 43057U 17079C   24175.09833589  .00000052  00000+0  00000+0 0  9992
2 43057  55.3365 241.4354 0006026 273.2970  86.7361  1.70474214 40640
GSAT0218 (PRN E31)      
1 43058U 17079D   24174.14523110  .00000052  00000+0  00000+0 0  9994
2 43058  55.3375 241.4587 0004792 265.6678  94.3785  1.70474611 40655
GSAT0221 (PRN E15)      
1 43564U 18060A   24174.04599271 -.00000065  00000+0  00000+0 0  9992
2 43564  57.3046   1.3363 0001966 299.2347  60.7760  1.70475794 36800
GSAT0222 (PRN E33)      
1 43565U 18060B   24174.85110463 -.00000065  00000+0  00000+0 0  9994
2 43565  57.3082   1.3165 0001464 220.7599 139.2572  1.70475538 36867
GSAT0219 (PRN E36)      
1 43566U 18060C   24175.07297472 -.00000066  00000+0  00000+0 0  9997
2 43566  57.3087   1.3124 0001540 329.4751  30.5433  1.70475801 36840
GSAT0220 (PRN E13)      
1 43567U 18060D   24174.70699940 -.00000065  00000+0  00000+0 0  9992
2 43567  57.3069   1.3228 0001491 317.1059  42.9110  1.70475598 36826
GSAT0223 (PRN E34)      
1 49809U 21116A   24173.97057419 -.00000065  00000+0  00000+0 0  9990
2 49809  57.2971   1.2367 0001783 146.0726 212.4180  1.70475846 15812
GSAT0224 (PRN E10)      
1 49810U 21116B   24176.42896711 -.00000068  00000+0  00000+0 0  9994
2 49810  57.2987   1.1690 0001797 126.3618  53.4036  1.70475670 15879
GSAT0225 (PRN E29)      
1 59598U 24079A   24162.57006490  .00000018  00000+0  00000+0 0  9991
2 59598  54.6844 121.6940 0021386 255.0217 286.2987  1.72327500   744
GSAT0227 (PRN E06)      
1 59600U 24079C   24162.27733445  .00000017  00000+0  00000+0 0  9998
2 59600  54.6844 121.7029 0021410 254.7953 104.9173  1.72327436   794
